FENGYUN 1C DEB          
1 31049U 99025BET 17346.31977736 -.00000104  00000-0 -38498-4 0  9999
2 31049  99.0790  13.2706 0052290 340.2222  19.6915 14.01976349548748
